start=new Date('2023-02-05T00:00:00.000Z').valueOf();
sats=[{"OBJECT_NAME":"STARLINK-3944","SEMIMAJOR_AXIS":"6917.886","SITE":"AFWTR","DECAY_DATE":null,"INCLINATION":"53.2162","PERIAPSIS":"537.402","ARG_OF_PERICENTER":"20.4274","REF_FRAME":"TEME","TLE_LINE2":"2 52544  53.2162 162.5846 0003396  20.4274 339.6853 15.08838061 40925","MEAN_MOTION":"15.08838061","EPOCH":"2023-02-04T15:35:10.386528","ECCENTRICITY":"0.00033960","OBJECT_TYPE":"PAYLOAD","MEAN_MOTION_DDOT":"0.0000000000000","COUNTRY_CODE":"US","MEAN_MOTION_DOT":"0.00000600","FILE":"3772514","MEAN_ANOMALY":"339.6853","BSTAR":"0.00005581700000","TIME_SYSTEM":"UTC","MEAN_ELEMENT_THEORY":"SGP4","TLE_LINE1":"1 52544U 22051M   23035.64942577  .00000600  00000-0  55817-4 0  9993","RA_OF_ASC_NODE":"162.5846","GP_ID":"224442227","NORAD_CAT_ID":"52544","ELEMENT_SET_NO":"999","CLASSIFICATION_TYPE":"U","EPHEMERIS_TYPE":"0","APOAPSIS":"542.101","LAUNCH_DATE":"2022-05-13","REV_AT_EPOCH":"4092","CENTER_NAME":"EARTH","RCS_SIZE":"LARGE","OBJECT_ID":"2022-051M","PERIOD":"95.438"},{"SITE":"AFWTR","OBJECT_NAME":"STARLINK-3939","SEMIMAJOR_AXIS":"6917.845","EPOCH":"2023-02-04T18:12:10.242432","INCLINATION":"53.2154","DECAY_DATE":null,"PERIAPSIS":"539.024","REF_FRAME":"TEME","ARG_OF_PERICENTER":"84.0714","MEAN_MOTION":"15.08851477","TLE_LINE2":"2 52545  53.2154 157.0996 0000992  84.0714 276.0391 15.08851477 41014","OBJECT_TYPE":"PAYLOAD","MEAN_MOTION_DDOT":"0.0000000000000","ECCENTRICITY":"0.00009920","MEAN_MOTION_DOT":"0.00002501","COUNTRY_CODE":"US","FILE":"3772514","MEAN_ANOMALY":"276.0391","BSTAR":"0.00017509000000","TIME_SYSTEM":"UTC","MEAN_ELEMENT_THEORY":"SGP4","CLASSIFICATION_TYPE":"U","ELEMENT_SET_NO":"999","EPHEMERIS_TYPE":"0","APOAPSIS":"540.397","LAUNCH_DATE":"2022-05-13","TLE_LINE1":"1 52545U 22051N   23035.75845188  .00002501  00000-0  17509-3 0  9993","GP_ID":"224442963","RA_OF_ASC_NODE":"157.0996","NORAD_CAT_ID":"52545","CENTER_NAME":"EARTH","REV_AT_EPOCH":"4101","RCS_SIZE":"LARGE","OBJECT_ID":"2022-051N","PERIOD":"95.437"},{"SEMIMAJOR_AXIS":"6917.839","OBJECT_NAME":"STARLINK-3948","SITE":"AFWTR","REF_FRAME":"TEME","DECAY_DATE":null,"PERIAPSIS":"538.750","INCLINATION":"53.2137","ARG_OF_PERICENTER":"81.0968","TLE_LINE2":"2 52546  53.2137 157.1529 0001380  81.0968 279.0180 15.08853395 41019","MEAN_MOTION":"15.08853395","EPOCH":"2023-02-04T17:52:20.993088","ECCENTRICITY":"0.00013800","OBJECT_TYPE":"PAYLOAD","MEAN_MOTION_DDOT":"0.0000000000000","MEAN_MOTION_DOT":"0.00002290","COUNTRY_CODE":"US","MEAN_ANOMALY":"279.0180","FILE":"3772514","TIME_SYSTEM":"UTC","BSTAR":"0.00016186000000","MEAN_ELEMENT_THEORY":"SGP4","GP_ID":"224441230","TLE_LINE1":"1 52546U 22051P   23035.74468742  .00002290  00000-0  16186-3 0  9995","RA_OF_ASC_NODE":"157.1529","NORAD_CAT_ID":"52546","ELEMENT_SET_NO":"999","CLASSIFICATION_TYPE":"U","EPHEMERIS_TYPE":"0","LAUNCH_DATE":"2022-05-13","APOAPSIS":"540.659","REV_AT_EPOCH":"4101","CENTER_NAME":"EARTH","OBJECT_ID":"2022-051P","RCS_SIZE":"LARGE","PERIOD":"95.437"},{"DECAY_DATE":null,"PERIAPSIS":"539.045","ARG_OF_PERICENTER":"94.3262","REF_FRAME":"TEME","INCLINATION":"53.2144","MEAN_MOTION":"15.08839434","TLE_LINE2":"2 52547  53.2144 162.8627 0001015  94.3262 265.7846 15.08839434 40916","EPOCH":"2023-02-04T14:05:06.673920","SEMIMAJOR_AXIS":"6917.882","OBJECT_NAME":"STARLINK-3869","SITE":"AFWTR","COUNTRY_CODE":"US","MEAN_MOTION_DOT":"0.00000906","MEAN_ANOMALY":"265.7846","FILE":"3771952","ECCENTRICITY":"0.00010150","OBJECT_TYPE":"PAYLOAD","MEAN_MOTION_DDOT":"0.0000000000000","TLE_LINE1":"1 52547U 22051Q   23035.58688280  .00000906  00000-0  74992-4 0  9991","RA_OF_ASC_NODE":"162.8627","GP_ID":"224403315","NORAD_CAT_ID":"52547","ELEMENT_SET_NO":"999","CLASSIFICATION_TYPE":"U","EPHEMERIS_TYPE":"0","APOAPSIS":"540.449","LAUNCH_DATE":"2022-05-13","TIME_SYSTEM":"UTC","BSTAR":"0.00007499200000","MEAN_ELEMENT_THEORY":"SGP4","OBJECT_ID":"2022-051Q","RCS_SIZE":"LARGE","PERIOD":"95.438","REV_AT_EPOCH":"4091","CENTER_NAME":"EARTH"},{"PERIOD":"95.437","RCS_SIZE":"LARGE","OBJECT_ID":"2022-051R","REV_AT_EPOCH":"4099","CENTER_NAME":"EARTH","APOAPSIS":"540.600","LAUNCH_DATE":"2022-05-13","ELEMENT_SET_NO":"999","CLASSIFICATION_TYPE":"U","EPHEMERIS_TYPE":"0","NORAD_CAT_ID":"52548","TLE_LINE1":"1 52548U 22051R   23035.59654088  .00000765  00000-0  66129-4 0  9998","GP_ID":"224403566","RA_OF_ASC_NODE":"157.8262","MEAN_ELEMENT_THEORY":"SGP4","BSTAR":"0.00006612900000","TIME_SYSTEM":"UTC","FILE":"3771952","MEAN_ANOMALY":"276.4798","MEAN_MOTION_DOT":"0.00000765","COUNTRY_CODE":"US","MEAN_MOTION_DDOT":"0.0000000000000","OBJECT_TYPE":"PAYLOAD","ECCENTRICITY":"0.00012680","EPOCH":"2023-02-04T14:19:01.132032","TLE_LINE2":"2 52548  53.2157 157.8262 0001268  83.6339 276.4798 15.08847511 40994","MEAN_MOTION":"15.08847511","DECAY_DATE":null,"REF_FRAME":"TEME","PERIAPSIS":"538.845","ARG_OF_PERICENTER":"83.6339","INCLINATION":"53.2157","SITE":"AFWTR","OBJECT_NAME":"STARLINK-3931","SEMIMAJOR_AXIS":"6917.857"},{"REV_AT_EPOCH":"4101","CENTER_NAME":"EARTH","RCS_SIZE":"LARGE","OBJECT_ID":"2022-051S","PERIOD":"95.436","BSTAR":"0.00023277000000","TIME_SYSTEM":"UTC","MEAN_ELEMENT_THEORY":"SGP4","GP_ID":"224442463","TLE_LINE1":"1 52549U 22051S   23035.74739704  .00003421  00000-0  23277-3 0  9993","RA_OF_ASC_NODE":"157.1441","NORAD_CAT_ID":"52549","EPHEMERIS_TYPE":"0","ELEMENT_SET_NO":"999","CLASSIFICATION_TYPE":"U","APOAPSIS":"540.606","LAUNCH_DATE":"2022-05-13","ECCENTRICITY":"0.00013460","OBJECT_TYPE":"PAYLOAD","MEAN_MOTION_DDOT":"0.0000000000000","COUNTRY_CODE":"US","MEAN_MOTION_DOT":"0.00003421","FILE":"3772514","MEAN_ANOMALY":"258.3006","OBJECT_NAME":"STARLINK-3935","SEMIMAJOR_AXIS":"6917.810","SITE":"AFWTR","DECAY_DATE":null,"PERIAPSIS":"538.744","REF_FRAME":"TEME","INCLINATION":"53.2153","ARG_OF_PERICENTER":"101.8137","TLE_LINE2":"2 52549  53.2153 157.1441 0001346 101.8137 258.3006 15.08863032 41010","MEAN_MOTION":"15.08863032","EPOCH":"2023-02-04T17:56:15.104256"},{"CENTER_NAME":"EARTH","REV_AT_EPOCH":"4106","RCS_SIZE":"LARGE","OBJECT_ID":"2022-051T","PERIOD":"95.437","BSTAR":"0.00009359900000","TIME_SYSTEM":"UTC","MEAN_ELEMENT_THEORY":"SGP4","EPHEMERIS_TYPE":"0","ELEMENT_SET_NO":"999","CLASSIFICATION_TYPE":"U","APOAPSIS":"540.763","LAUNCH_DATE":"2022-05-13","RA_OF_ASC_NODE":"157.7933","TLE_LINE1":"1 52550U 22051T   23035.60389899  .00001202  00000-0  93599-4 0  9996","GP_ID":"224417597","NORAD_CAT_ID":"52550","OBJECT_TYPE":"PAYLOAD","MEAN_MOTION_DDOT":"0.0000000000000","ECCENTRICITY":"0.00015020","MEAN_MOTION_DOT":"0.00001202","COUNTRY_CODE":"US","FILE":"3772444","MEAN_ANOMALY":"282.0010","SITE":"AFWTR","OBJECT_NAME":"STARLINK-3965","SEMIMAJOR_AXIS":"6917.858","EPOCH":"2023-02-04T14:29:36.872736","PERIAPSIS":"538.684","DECAY_DATE":null,"INCLINATION":"53.2169","ARG_OF_PERICENTER":"78.1151","REF_FRAME":"TEME","TLE_LINE2":"2 52550  53.2169 157.7933 0001502  78.1151 282.0010 15.08847176 41062","MEAN_MOTION":"15.08847176"},{"EPOCH":"2023-02-04T17:50:58.723872","TLE_LINE2":"2 52551  53.2148 157.1550 0001215 112.8819 247.2301 15.08842418 41012","MEAN_MOTION":"15.08842418","DECAY_DATE":null,"PERIAPSIS":"538.897","REF_FRAME":"TEME","INCLINATION":"53.2148","ARG_OF_PERICENTER":"112.8819","SITE":"AFWTR","OBJECT_NAME":"STARLINK-3969","SEMIMAJOR_AXIS":"6917.873","FILE":"3772514","MEAN_ANOMALY":"247.2301","COUNTRY_CODE":"US","MEAN_MOTION_DOT":"-0.00000199","MEAN_MOTION_DDOT":"0.0000000000000","OBJECT_TYPE":"PAYLOAD","ECCENTRICITY":"0.00012150","LAUNCH_DATE":"2022-05-13","APOAPSIS":"540.579","ELEMENT_SET_NO":"999","CLASSIFICATION_TYPE":"U","EPHEMERIS_TYPE":"0","NORAD_CAT_ID":"52551","GP_ID":"224441980","TLE_LINE1":"1 52551U 22051U   23035.74373523 -.00000199  00000-0  55946-5 0  9999","RA_OF_ASC_NODE":"157.1550","MEAN_ELEMENT_THEORY":"SGP4","BSTAR":"0.00000559460000","TIME_SYSTEM":"UTC","PERIOD":"95.437","RCS_SIZE":"LARGE","OBJECT_ID":"2022-051U","REV_AT_EPOCH":"4101","CENTER_NAME":"EARTH"},{"COUNTRY_CODE":"US","MEAN_MOTION_DOT":"0.00002473","MEAN_ANOMALY":"274.0614","FILE":"3772514","ECCENTRICITY":"0.00011950","OBJECT_TYPE":"PAYLOAD","MEAN_MOTION_DDOT":"0.0000000000000","PERIAPSIS":"538.887","DECAY_DATE":null,"INCLINATION":"53.2145","REF_FRAME":"TEME","ARG_OF_PERICENTER":"86.0515","TLE_LINE2":"2 52552  53.2145 157.2488 0001195  86.0515 274.0614 15.08850278 41011","MEAN_MOTION":"15.08850278","EPOCH":"2023-02-04T17:24:28.989792","SEMIMAJOR_AXIS":"6917.849","OBJECT_NAME":"STARLINK-3966","SITE":"AFWTR","OBJECT_ID":"2022-051V","RCS_SIZE":"LARGE","PERIOD":"95.437","REV_AT_EPOCH":"4101","CENTER_NAME":"EARTH","GP_ID":"224442228","TLE_LINE1":"1 52552U 22051V   23035.72533553  .00002473  00000-0  17339-3 0  9997","RA_OF_ASC_NODE":"157.2488","NORAD_CAT_ID":"52552","CLASSIFICATION_TYPE":"U","ELEMENT_SET_NO":"999","EPHEMERIS_TYPE":"0","APOAPSIS":"540.541","LAUNCH_DATE":"2022-05-13","TIME_SYSTEM":"UTC","BSTAR":"0.00017339000000","MEAN_ELEMENT_THEORY":"SGP4"},{"NORAD_CAT_ID":"52553","TLE_LINE1":"1 52553U 22051W   23035.74005285  .00002212  00000-0  15696-3 0  9991","GP_ID":"224442964","RA_OF_ASC_NODE":"157.1795","APOAPSIS":"540.651","LAUNCH_DATE":"2022-05-13","ELEMENT_SET_NO":"999","EPHEMERIS_TYPE":"0","CLASSIFICATION_TYPE":"U","MEAN_ELEMENT_THEORY":"SGP4","BSTAR":"0.00015696000000","TIME_SYSTEM":"UTC","PERIOD":"95.437","RCS_SIZE":"LARGE","OBJECT_ID":"2022-051W","CENTER_NAME":"EARTH","REV_AT_EPOCH":"4101","TLE_LINE2":"2 52553  53.2162 157.1795 0001348 101.7007 258.4136 15.08848707 41011","MEAN_MOTION":"15.08848707","DECAY_DATE":null,"PERIAPSIS":"538.786","ARG_OF_PERICENTER":"101.7007","INCLINATION":"53.2162","REF_FRAME":"TEME","EPOCH":"2023-02-04T17:45:40.566240","OBJECT_NAME":"STARLINK-3858","SEMIMAJOR_AXIS":"6917.854","SITE":"AFWTR","FILE":"3772514","MEAN_ANOMALY":"258.4136","COUNTRY_CODE":"US","MEAN_MOTION_DOT":"0.00002212","ECCENTRICITY":"0.00013480","MEAN_MOTION_DDOT":"0.0000000000000","OBJECT_TYPE":"PAYLOAD"}];
